[{"OBJECT_NAME":"STARLINK-2700","OBJECT_ID":"2021-040D","EPOCH":"2026-03-10T00:00:02.999808","MEAN_MOTION":15.11991439,"ECCENTRICITY":5.041e-5,"INCLINATION":53.0768,"RA_OF_ASC_NODE":150.1688,"ARG_OF_PERICENTER":97.2638,"MEAN_ANOMALY":273.4483,"EPHEMERIS_TYPE":0,"CLASSIFICATION_TYPE":"U","NORAD_CAT_ID":48431,"ELEMENT_SET_NO":999,"REV_AT_EPOCH":579,"BSTAR":0.078428308,"MEAN_MOTION_DOT":0.01495167,"MEAN_MOTION_DDOT":0},{"OBJECT_NAME":"CZ-2C DEB","OBJECT_ID":"2012-056D","EPOCH":"2026-03-09T22:30:06.084288","MEAN_MOTION":15.2083784,"ECCENTRICITY":0.00097542,"INCLINATION":97.554,"RA_OF_ASC_NODE":138.2235,"ARG_OF_PERICENTER":53.3187,"MEAN_ANOMALY":306.8943,"EPHEMERIS_TYPE":0,"CLASSIFICATION_TYPE":"U","NORAD_CAT_ID":38863,"ELEMENT_SET_NO":999,"REV_AT_EPOCH":72819,"BSTAR":0.00094787805,"MEAN_MOTION_DOT":0.00020917,"MEAN_MOTION_DDOT":0}]
